SENTINEL-3A             
1 41335U 16011A   26200.26589979  .00000040  00000+0  34464-4 0  9998
2 41335  98.6234 267.1862 0001318  89.1446 270.9885 14.26740492542635
SENTINEL-3B             
1 43437U 18039A   26200.16892100  .00000040  00000+0  34722-4 0  9994
2 43437  98.6233 267.2398 0001236 119.0606 241.0698 14.26737055428684
